#aV2023  1 15  0  0  0.00000000     288 DD+AD WGS84 FIT  NGA
## 2245      0.00000000   300.00000000 59959 0.0000000000000
+   31     1  2  3  4  5  6  7  8  9 10 11 12 13 14 15 16 17
+         18 19 20 21 22 23 24 25 26 27 29 30 31 32  0  0  0
+          0  0  0  0  0  0  0  0  0  0  0  0  0  0  0  0  0
+          0  0  0  0  0  0  0  0  0  0  0  0  0  0  0  0  0
+          0  0  0  0  0  0  0  0  0  0  0  0  0  0  0  0  0
++         2  2  2  2  2  2  2  2  2  2  2  2  2  2  2  2  2
++         2  2  2  2  2  2  2  2  2  2  2  2  2  2  0  0  0
++         0  0  0  0  0  0  0  0  0  0  0  0  0  0  0  0  0
++         0  0  0  0  0  0  0  0  0  0  0  0  0  0  0  0  0
++         0  0  0  0  0  0  0  0  0  0  0  0  0  0  0  0  0
%c cc cc ccc ccc cccc cccc cccc cccc ccccc ccccc ccccc ccccc
%c cc cc ccc ccc cccc cccc cccc cccc ccccc ccccc ccccc ccccc
%f  0.0000000  0.000000000  0.00000000000  0.000000000000000
%f  0.0000000  0.000000000  0.00000000000  0.000000000000000
%i    0    0    0    0      0      0      0      0         0
%i    0    0    0    0      0      0      0      0         0
/*      NGA, ST. LOUIS,MO.                                  
/*   EPHEMERIS COMPUTED FROM 2 DAYS OF DATA                 
/*   EPOCHA v8 SMOOTHER                                     
/*   G2139 IERS2010 SATIGS SATAPC                           
*  2023  1 15 17 55  0.00000000
P  1  -9427.889222 -13474.976623 -21248.181777    224.066041                    
V  1  26036.331541  -1825.601030 -10214.629429     -0.046972                    
P  2  12686.117232  12301.509699  20394.532676   -627.120827                    
V  2 -24124.158712   4708.397668  12779.280027      0.023038                    
P  3 -12114.968577 -23306.316415  -4445.047127   -371.971354                    
V  3   4833.803183   3329.465454 -31385.017938      0.021904                    
P  4  -3497.528742 -19557.192192  17578.945725    -48.098610                    
V  4  11962.014945 -18956.110430 -18819.957393      0.076919                    
P  5    982.803644  20570.169842  16536.841149   -112.101989                    
V  5 -14241.973723 -16029.253428  20688.747484     -0.014524                    
P  6 -25121.221215   5909.717283   6542.220887    558.921254                    
V  6  -8267.802153  -1250.981751 -30862.674570      0.059882                    
P  7 -22396.126350  -7735.014795  12909.066148    258.278801                    
V  7  15372.521541  -3126.950540  25170.952369     -0.062514                    
P  8   4811.902158 -24568.634078  -8312.002283   -103.723126                    
V  8   7040.091139  -8437.166358  29568.783741     -0.018751                    
P  9 -12324.717466  -9477.888962  21451.966479   -235.928778                    
V  9  11857.163829 -24756.781780  -4156.685440      0.066122                    
P 10  18017.576241   3539.801787 -19137.116500    -20.533916                    
V 10  12936.523532  20844.129112  15589.011321     -0.015523                    
P 11 -16336.205484  12140.850184  17056.804571    -79.482333                    
V 11 -21669.988552  -1295.294548 -19877.711008     -0.088427                    
P 12   9415.780270  24277.272638  -5785.545298   -328.462007                    
V 12  -5573.371094  -4824.956146 -30692.531688     -0.045468                    
P 13 -12828.898426  22956.708418  -3063.267228    459.875395                    
V 13  -4271.739341   1583.447664  31756.807761      0.064069                    
P 14 -18815.859270  -6050.654901 -17793.897178    -48.737413                    
V 14 -10548.221844 -20053.724980  17846.015918      0.077049                    
P 15  -1295.843757  25022.920413  -8828.726262      4.886526                    
V 15  -6693.201857   9099.338200  28488.678551      0.032883                    
P 16   4187.024804 -18392.938972  18209.393489   -523.747811                    
V 16  13107.941044  20040.941515  17412.706563      0.011519                    
P 17 -17419.601557   4529.230825 -19127.823496    693.542384                    
V 17  11361.003532 -22476.341192 -15231.382588      0.025876                    
P 18  24068.677429   5539.733281   9963.859224   -100.303295                    
V 18 -12459.292311   2712.198971  28458.796053     -0.152382                    
P 19 -18758.557544  14045.635055 -12467.920368    264.517973                    
V 19   6485.221034 -14278.252704 -26585.526716      0.050915                    
P 20  -8650.705991  13253.599539  21378.937859    456.872687                    
V 20 -18899.562872 -19435.290451   4192.286023     -0.023930                    
P 21   -635.913619 -14958.529113 -21302.826754    153.464972                    
V 21  28279.923158  -3837.770259   2579.132623      0.002685                    
P 22  17530.871192 -17576.972472  -8765.716502    406.540775                    
V 22  -3628.748381  11548.599545 -29169.317519      0.079706                    
P 23  19619.878085  13815.268398 -11540.664693      2.579890                    
V 23   6895.374974  13007.145798  27149.480769      0.011496                    
P 24   5447.326299  15217.684772 -21455.523271    -31.282285                    
V 24 -26158.714543   4304.380363  -3225.346481     -0.166612                    
P 25  16559.343454  20763.097424   2569.027224    411.565771                    
V 25   -241.349257   4555.786273 -31207.454891      0.033739                    
P 26  13448.343045  -8259.787212  21267.537531    240.338453                    
V 26  16661.721759  21682.691711  -1764.790384      0.005833                    
P 27  12657.886874 -22978.614447   2052.057146    126.317369                    
V 27   1345.083203   3882.853701  32082.004863     -0.093804                    
P 29   9233.141209  12702.708255  21361.893908   -580.568381                    
V 29 -14210.408050  23192.832684  -7707.581560     -0.022332                    
P 30 -26669.218047    676.296619   1233.599252   -533.179495                    
V 30   1248.289301  -3473.966258  30959.032084      0.009717                    
P 31  24707.643898  -6691.907793   7753.152174   -206.410210                    
V 31  10064.959007   2013.894729 -29246.354004     -0.010801                    
P 32  17680.922201  -7919.744256 -17919.099093   -364.985781                    
V 32  -8352.791671  21668.364880 -17859.181282     -0.123770                    
EOF
